#aV2012  3 18  0  0  0.00000000     288 DD+AD WGS84 FIT  NGA
## 1680      0.00000000   300.00000000 56004 0.0000000000000
+   31     1  2  3  4  5  6  7  8  9 10 11 12 13 14 15 16 17
+         18 19 20 21 22 23 25 26 27 28 29 30 31 32  0  0  0
+          0  0  0  0  0  0  0  0  0  0  0  0  0  0  0  0  0
+          0  0  0  0  0  0  0  0  0  0  0  0  0  0  0  0  0
+          0  0  0  0  0  0  0  0  0  0  0  0  0  0  0  0  0
++         2  2  2  2  2  2  2  2  2  2  2  2  2  2  2  2  2
++         2  2  2  2  2  2  2  2  2  2  2  2  2  2  2  0  0
++         0  0  0  0  0  0  0  0  0  0  0  0  0  0  0  0  0
++         0  0  0  0  0  0  0  0  0  0  0  0  0  0  0  0  0
++         0  0  0  0  0  0  0  0  0  0  0  0  0  0  0  0  0
%c cc cc ccc ccc cccc cccc cccc cccc ccccc ccccc ccccc ccccc
%c cc cc ccc ccc cccc cccc cccc cccc ccccc ccccc ccccc ccccc
%f  0.0000000  0.000000000  0.00000000000  0.000000000000000
%f  0.0000000  0.000000000  0.00000000000  0.000000000000000
%i    0    0    0    0      0      0      0      0         0
%i    0    0    0    0      0      0      0      0         0
/*      NGA, ST. LOUIS,MO.                                  
/*   EPHEMERIS COMPUTED FROM  1 DAYS OF DATA
/*   EPOCHA SMOOTHER  
/* CCCCCCCCCCCCCCCCCCCCCCCCCCCCCCCCCCCCCCCCCCCCCCCCCCCCCCCCC
*  2012  3 18 20 30  0.00000000                                                 
P  1 -20002.560949  -9086.911591  14929.207524    234.847736                    
V  1  -9838.758326 -16347.715784 -23093.104999      0.068393                    
P  2  12572.085395  23017.275258   5767.891270    383.310594                    
V  2  -6678.406511  -3805.218715  29812.149773      0.014770                    
P  3 -11293.786459 -13024.080775 -20726.795531     24.188965                    
V  3  24320.906196  -7181.142456  -8659.056189      0.051761                    
P  4   2949.100141  21692.888980  14564.474653    126.838918                    
V  4 -13770.910902 -13557.191984  22920.884099      0.114727                    
P  5   5418.731723  19188.836555 -17509.434565   -295.223043                    
V  5 -10443.528656  19750.707880  18561.362766     -0.042704                    
P  6  -6504.275923 -14584.941834 -21119.061053     31.941360                    
V  6  26687.059324  -5173.237746  -4333.677476     -0.000632                    
P  7 -14871.203204   4382.056978 -21576.923049     65.432662                    
V  7 -15843.141154 -22313.105331   6143.031975      0.030168                    
P  8  -6255.560777  15252.191858 -20609.511920      0.848988                    
V  8 -14518.518346 -22047.843150 -12423.866102      0.000830                    
P  9  19700.990153  13201.130548  11376.372374    145.616615                    
V  9   7791.651666  13283.189585 -27610.336588      0.025340                    
P 10  -8808.194526  24682.353457  -2926.704930    -32.677098                    
V 10  -4685.816379   1690.636704  31393.250978     -0.012574                    
P 11 -23198.270101 -11522.423948   6202.830050   -242.919273                    
V 11  -3814.544925  -8770.131532 -28488.841974     -0.036737                    
P 12  14626.438727   3405.313018  21895.442301     58.582079                    
V 12 -11155.747006  25418.509081   3682.881509      0.021207                    
P 13 -24878.033678   5776.465217  -7598.906034    218.708943                    
V 13  -9454.820286  -1502.429611  30306.326191     -0.022116                    
P 14   9958.637917 -14189.798364  20254.778719    197.478253                    
V 14  25335.699683   -493.240960 -13047.216542      0.011999                    
P 15  24083.606908   4292.723459 -10613.026721    -91.915206                    
V 15 -12902.549276   4567.628856 -27242.838440      0.002809                    
P 16  -3866.414659 -19368.979655 -17586.750904   -227.916063                    
V 16  11007.447205 -19610.860134  19465.940479     -0.015131                    
P 17 -12494.178122  14171.612422  18742.447965    141.764474                    
V 17 -23566.912288    507.530615 -16477.287974     -0.024678                    
P 18  16681.664193 -16661.721256 -11516.042330    186.781726                    
V 18  -2923.889907  15486.439891 -26225.814266      0.018023                    
P 19 -22086.215118  -8171.824857 -12688.436747   -246.816673                    
V 19  15836.038493  -2548.350330 -25622.782182     -0.038039                    
P 20 -16757.836213   1433.446687  20380.982396     63.343571                    
V 20   8254.637144 -25076.129987   8551.945394     -0.001224                    
P 21  12699.673705  -9080.861530 -21015.447055   -211.504461                    
V 21  16820.760211  22277.513692    -58.734955     -0.024986                    
P 22   9540.940952 -24671.784368   1685.154774    143.132278                    
V 22   4396.477877   -189.442856 -30983.756359      0.001317                    
P 23 -26505.578454    254.224918   3691.770521    223.055972                    
V 23   4314.760274  -2948.636829  31061.655134     -0.034995                    
P 25  17176.680285 -11247.464084  16795.266838     32.322627                    
V 25  -6596.209721  20407.099122  20433.382330      0.002598                    
P 26  12755.547712  12936.181189 -20127.230783   -174.973507                    
V 26 -23997.117310   1451.720828 -14359.193234     -0.564586                    
P 27  19571.296948  17435.628936   6257.231875    368.174787                    
V 27   3205.354760   6435.643303 -30634.822819      0.039917                    
P 28 -11661.007164  23711.092385   -254.452857    123.983991                    
V 28  -1799.638558  -1975.287948 -32280.515968      0.039542                    
P 29  25553.194466  -5291.465828  -4754.409091    294.987784                    
V 29   6321.709053   2249.146805  31065.575149      0.035803                    
P 30    866.549016 -24952.748516  -9398.895329    -89.512126                    
V 30   5821.166709 -10171.875782  28629.865199     -0.165378                    
P 31  -3521.050257 -21758.889006  14833.121003    221.032451                    
V 31  12280.106910  14008.334535  24013.936345      0.043972                    
P 32 -12864.325221  -8788.163468  21747.574856   -421.937010                    
V 32  12740.330121 -23930.156699  -1689.608539     -0.048198                    
EOF
